KUIPER-00159            
1 67764U 26030A   26064.27208700  .00027238  00000+0  78454-3 0  9997
2 67764  51.8846 240.4669 0004618  33.1879 326.9396 15.35539800  4411
KUIPER-00160            
1 67765U 26030B   26064.27327232  .00041184  00000+0  11840-2 0  9991
2 67765  51.8816 240.4664 0004980  44.0159 316.1223 15.35391730  4416
KUIPER-00177            
1 67766U 26030C   26063.93590972  .00036981  00000+0  10344-2 0  9994
2 67766  51.8829 241.9638 0001020  14.8865 345.2152 15.36307540  4364
KUIPER-00178            
1 67767U 26030D   26064.27498033  .00043464  00000+0  12502-2 0  9990
2 67767  51.8836 240.4823 0005906  33.8867 326.2496 15.35344890  4417
KUIPER-00180            
1 67768U 26030E   26063.97912338  .00023186  00000+0  74380-3 0  9998
2 67768  51.8800 242.2351 0014547  54.7162 305.5181 15.32128168  4366
KUIPER-00197            
1 67769U 26030F   26064.00307168  .00038133  00000+0  10702-2 0  9998
2 67769  51.8832 241.6633 0001317  52.9830 307.1277 15.36189547  4378
KUIPER-00198            
1 67770U 26030G   26064.20305186  .00045799  00000+0  12959-2 0  9992
2 67770  51.8811 240.7468 0002895  35.3139 324.8039 15.35847342  4401
KUIPER-00199            
1 67771U 26030H   26064.28975024  .00036779  00000+0  10995-2 0  9991
2 67771  51.8812 240.5711 0010421  48.3327 311.8549 15.34176194  4411
KUIPER-00200            
1 67772U 26030J   26064.19000388  .00042340  00000+0  11614-2 0  9994
2 67772  51.8807 240.6657 0001585 222.9726 137.1137 15.36853106  4408
KUIPER-00203            
1 67773U 26030K   26064.25003472 -.01168385  00000+0 -51408-1 0  9994
2 67773  51.8819 241.0007 0011444  48.4427 315.1366 15.24033495  2970
KUIPER-00205            
1 67774U 26030L   26064.00381564  .00035070  00000+0  98598-3 0  9993
2 67774  51.8811 241.6644 0002856   6.8945 353.2080 15.36172548  4374
KUIPER-00208            
1 67775U 26030M   26063.97646247 -.00001946  00000+0 -49138-4 0  9995
2 67775  51.8826 242.2265 0014385  47.2637 312.9556 15.32442383  4366
KUIPER-00209            
1 67776U 26030N   26064.11182499 -.00034759  00000+0 -11448-2 0  9996
2 67776  51.8813 241.6303 0013054  54.3648 305.8549 15.30687024  4388
KUIPER-00213            
1 67777U 26030P   26064.04239803  .00042850  00000+0  13424-2 0  9996
2 67777  51.8795 241.9088 0015039  51.2941 308.9386 15.32561723  4379
KUIPER-00214            
1 67778U 26030Q   26063.99751393  .00007232  00000+0  21009-3 0  9997
2 67778  51.8838 241.6296 0000321 154.9541 205.1462 15.36551093  4377
KUIPER-00215            
1 67779U 26030R   26064.28815317  .00026346  00000+0  78988-3 0  9993
2 67779  51.8841 240.5698 0010013  47.6291 312.5541 15.34260791  4411
