[{"OBJECT_NAME":"KUIPER-00159","OBJECT_ID":"2026-030A","EPOCH":"2026-03-05T06:31:48.316800","MEAN_MOTION":15.355398,"ECCENTRICITY":0.00046181,"INCLINATION":51.8846,"RA_OF_ASC_NODE":240.4669,"ARG_OF_PERICENTER":33.1879,"MEAN_ANOMALY":326.9396,"EPHEMERIS_TYPE":0,"CLASSIFICATION_TYPE":"U","NORAD_CAT_ID":67764,"ELEMENT_SET_NO":999,"REV_AT_EPOCH":441,"BSTAR":0.00078454421,"MEAN_MOTION_DOT":0.00027238,"MEAN_MOTION_DDOT":0},{"OBJECT_NAME":"KUIPER-00160","OBJECT_ID":"2026-030B","EPOCH":"2026-03-05T06:33:30.728448","MEAN_MOTION":15.3539173,"ECCENTRICITY":0.000498,"INCLINATION":51.8816,"RA_OF_ASC_NODE":240.4664,"ARG_OF_PERICENTER":44.0159,"MEAN_ANOMALY":316.1223,"EPHEMERIS_TYPE":0,"CLASSIFICATION_TYPE":"U","NORAD_CAT_ID":67765,"ELEMENT_SET_NO":999,"REV_AT_EPOCH":441,"BSTAR":0.0011839928,"MEAN_MOTION_DOT":0.00041184,"MEAN_MOTION_DDOT":0},{"OBJECT_NAME":"KUIPER-00177","OBJECT_ID":"2026-030C","EPOCH":"2026-03-04T22:27:42.599808","MEAN_MOTION":15.3630754,"ECCENTRICITY":0.00010204,"INCLINATION":51.8829,"RA_OF_ASC_NODE":241.9638,"ARG_OF_PERICENTER":14.8865,"MEAN_ANOMALY":345.2152,"EPHEMERIS_TYPE":0,"CLASSIFICATION_TYPE":"U","NORAD_CAT_ID":67766,"ELEMENT_SET_NO":999,"REV_AT_EPOCH":436,"BSTAR":0.0010344282,"MEAN_MOTION_DOT":0.00036981,"MEAN_MOTION_DDOT":0},{"OBJECT_NAME":"KUIPER-00178","OBJECT_ID":"2026-030D","EPOCH":"2026-03-05T06:35:58.300512","MEAN_MOTION":15.3534489,"ECCENTRICITY":0.00059067,"INCLINATION":51.8836,"RA_OF_ASC_NODE":240.4823,"ARG_OF_PERICENTER":33.8867,"MEAN_ANOMALY":326.2496,"EPHEMERIS_TYPE":0,"CLASSIFICATION_TYPE":"U","NORAD_CAT_ID":67767,"ELEMENT_SET_NO":999,"REV_AT_EPOCH":441,"BSTAR":0.0012502425,"MEAN_MOTION_DOT":0.00043464,"MEAN_MOTION_DDOT":0},{"OBJECT_NAME":"KUIPER-00180","OBJECT_ID":"2026-030E","EPOCH":"2026-03-04T23:29:56.260032","MEAN_MOTION":15.32128168,"ECCENTRICITY":0.00145475,"INCLINATION":51.88,"RA_OF_ASC_NODE":242.2351,"ARG_OF_PERICENTER":54.7162,"MEAN_ANOMALY":305.5181,"EPHEMERIS_TYPE":0,"CLASSIFICATION_TYPE":"U","NORAD_CAT_ID":67768,"ELEMENT_SET_NO":999,"REV_AT_EPOCH":436,"BSTAR":0.00074380077,"MEAN_MOTION_DOT":0.00023186,"MEAN_MOTION_DDOT":0},{"OBJECT_NAME":"KUIPER-00197","OBJECT_ID":"2026-030F","EPOCH":"2026-03-05T00:04:25.393152","MEAN_MOTION":15.36189547,"ECCENTRICITY":0.00013178,"INCLINATION":51.8832,"RA_OF_ASC_NODE":241.6633,"ARG_OF_PERICENTER":52.983,"MEAN_ANOMALY":307.1277,"EPHEMERIS_TYPE":0,"CLASSIFICATION_TYPE":"U","NORAD_CAT_ID":67769,"ELEMENT_SET_NO":999,"REV_AT_EPOCH":437,"BSTAR":0.001070194,"MEAN_MOTION_DOT":0.00038133,"MEAN_MOTION_DDOT":0},{"OBJECT_NAME":"KUIPER-00198","OBJECT_ID":"2026-030G","EPOCH":"2026-03-05T04:52:23.680704","MEAN_MOTION":15.35847342,"ECCENTRICITY":0.00028953,"INCLINATION":51.8811,"RA_OF_ASC_NODE":240.7468,"ARG_OF_PERICENTER":35.3139,"MEAN_ANOMALY":324.8039,"EPHEMERIS_TYPE":0,"CLASSIFICATION_TYPE":"U","NORAD_CAT_ID":67770,"ELEMENT_SET_NO":999,"REV_AT_EPOCH":440,"BSTAR":0.0012959398,"MEAN_MOTION_DOT":0.00045799,"MEAN_MOTION_DDOT":0},{"OBJECT_NAME":"KUIPER-00199","OBJECT_ID":"2026-030H","EPOCH":"2026-03-05T06:57:14.420736","MEAN_MOTION":15.34176194,"ECCENTRICITY":0.00104215,"INCLINATION":51.8812,"RA_OF_ASC_NODE":240.5711,"ARG_OF_PERICENTER":48.3327,"MEAN_ANOMALY":311.8549,"EPHEMERIS_TYPE":0,"CLASSIFICATION_TYPE":"U","NORAD_CAT_ID":67771,"ELEMENT_SET_NO":999,"REV_AT_EPOCH":441,"BSTAR":0.0010994648,"MEAN_MOTION_DOT":0.00036779,"MEAN_MOTION_DDOT":0},{"OBJECT_NAME":"KUIPER-00200","OBJECT_ID":"2026-030J","EPOCH":"2026-03-05T04:33:36.335232","MEAN_MOTION":15.36853106,"ECCENTRICITY":0.00015859,"INCLINATION":51.8807,"RA_OF_ASC_NODE":240.6657,"ARG_OF_PERICENTER":222.9726,"MEAN_ANOMALY":137.1137,"EPHEMERIS_TYPE":0,"CLASSIFICATION_TYPE":"U","NORAD_CAT_ID":67772,"ELEMENT_SET_NO":999,"REV_AT_EPOCH":440,"BSTAR":0.0011614081,"MEAN_MOTION_DOT":0.0004234,"MEAN_MOTION_DDOT":0},{"OBJECT_NAME":"KUIPER-00203","OBJECT_ID":"2026-030K","EPOCH":"2026-03-05T06:00:02.999808","MEAN_MOTION":15.24033495,"ECCENTRICITY":0.00114449,"INCLINATION":51.8819,"RA_OF_ASC_NODE":241.0007,"ARG_OF_PERICENTER":48.4427,"MEAN_ANOMALY":315.1366,"EPHEMERIS_TYPE":0,"CLASSIFICATION_TYPE":"U","NORAD_CAT_ID":67773,"ELEMENT_SET_NO":999,"REV_AT_EPOCH":297,"BSTAR":-0.051408042,"MEAN_MOTION_DOT":-0.01168385,"MEAN_MOTION_DDOT":0},{"OBJECT_NAME":"KUIPER-00205","OBJECT_ID":"2026-030L","EPOCH":"2026-03-05T00:05:29.671296","MEAN_MOTION":15.36172548,"ECCENTRICITY":0.00028569,"INCLINATION":51.8811,"RA_OF_ASC_NODE":241.6644,"ARG_OF_PERICENTER":6.8945,"MEAN_ANOMALY":353.208,"EPHEMERIS_TYPE":0,"CLASSIFICATION_TYPE":"U","NORAD_CAT_ID":67774,"ELEMENT_SET_NO":999,"REV_AT_EPOCH":437,"BSTAR":0.00098598301,"MEAN_MOTION_DOT":0.0003507,"MEAN_MOTION_DDOT":0},{"OBJECT_NAME":"KUIPER-00208","OBJECT_ID":"2026-030M","EPOCH":"2026-03-04T23:26:06.357408","MEAN_MOTION":15.32442383,"ECCENTRICITY":0.0014385,"INCLINATION":51.8826,"RA_OF_ASC_NODE":242.2265,"ARG_OF_PERICENTER":47.2637,"MEAN_ANOMALY":312.9556,"EPHEMERIS_TYPE":0,"CLASSIFICATION_TYPE":"U","NORAD_CAT_ID":67775,"ELEMENT_SET_NO":999,"REV_AT_EPOCH":436,"BSTAR":-4.913796e-5,"MEAN_MOTION_DOT":-1.946e-5,"MEAN_MOTION_DDOT":0},{"OBJECT_NAME":"KUIPER-00209","OBJECT_ID":"2026-030N","EPOCH":"2026-03-05T02:41:01.679136","MEAN_MOTION":15.30687024,"ECCENTRICITY":0.00130545,"INCLINATION":51.8813,"RA_OF_ASC_NODE":241.6303,"ARG_OF_PERICENTER":54.3648,"MEAN_ANOMALY":305.8549,"EPHEMERIS_TYPE":0,"CLASSIFICATION_TYPE":"U","NORAD_CAT_ID":67776,"ELEMENT_SET_NO":999,"REV_AT_EPOCH":438,"BSTAR":-0.0011448128,"MEAN_MOTION_DOT":-0.00034759,"MEAN_MOTION_DDOT":0},{"OBJECT_NAME":"KUIPER-00213","OBJECT_ID":"2026-030P","EPOCH":"2026-03-05T01:01:03.189792","MEAN_MOTION":15.32561723,"ECCENTRICITY":0.00150391,"INCLINATION":51.8795,"RA_OF_ASC_NODE":241.9088,"ARG_OF_PERICENTER":51.2941,"MEAN_ANOMALY":308.9386,"EPHEMERIS_TYPE":0,"CLASSIFICATION_TYPE":"U","NORAD_CAT_ID":67777,"ELEMENT_SET_NO":999,"REV_AT_EPOCH":437,"BSTAR":0.0013423594,"MEAN_MOTION_DOT":0.0004285,"MEAN_MOTION_DDOT":0},{"OBJECT_NAME":"KUIPER-00214","OBJECT_ID":"2026-030Q","EPOCH":"2026-03-04T23:56:25.203552","MEAN_MOTION":15.36551093,"ECCENTRICITY":3.213e-5,"INCLINATION":51.8838,"RA_OF_ASC_NODE":241.6296,"ARG_OF_PERICENTER":154.9541,"MEAN_ANOMALY":205.1462,"EPHEMERIS_TYPE":0,"CLASSIFICATION_TYPE":"U","NORAD_CAT_ID":67778,"ELEMENT_SET_NO":999,"REV_AT_EPOCH":437,"BSTAR":0.00021008901,"MEAN_MOTION_DOT":7.232e-5,"MEAN_MOTION_DDOT":0},{"OBJECT_NAME":"KUIPER-00215","OBJECT_ID":"2026-030R","EPOCH":"2026-03-05T06:54:56.433888","MEAN_MOTION":15.34260791,"ECCENTRICITY":0.00100132,"INCLINATION":51.8841,"RA_OF_ASC_NODE":240.5698,"ARG_OF_PERICENTER":47.6291,"MEAN_ANOMALY":312.5541,"EPHEMERIS_TYPE":0,"CLASSIFICATION_TYPE":"U","NORAD_CAT_ID":67779,"ELEMENT_SET_NO":999,"REV_AT_EPOCH":441,"BSTAR":0.00078987937,"MEAN_MOTION_DOT":0.00026346,"MEAN_MOTION_DDOT":0}]
